{"epoch":1784710044,"count":18256,"objects":[{"id":"46278","name":"GHGSAT-C1","type":"PAYLOAD","l1":"1 46278U 20061G   26202.58682633  .00040784  00000-0  28958-3 0  9997","l2":"2 46278  97.2081 288.9025 0001464 168.2637 191.8663 15.73815927328889"},{"id":"47509","name":"GHGSAT-C2","type":"PAYLOAD","l1":"1 47509U 21006DA  26202.56749347  .00005500  00000-0  14846-3 0  9997","l2":"2 47509  97.2127 249.2472 0006358  58.2743 301.9121 15.38158234305135"},{"id":"52737","name":"GHGSAT-C3","type":"PAYLOAD","l1":"1 52737U 22057F   26202.60337632  .00005373  00000-0  16212-3 0  9995","l2":"2 52737  97.6640 349.5675 0005737  14.2001 345.9402 15.34730391230814"},{"id":"52744","name":"GHGSAT-C5","type":"PAYLOAD","l1":"1 52744U 22057N   26202.64281728  .00005708  00000-0  17214-3 0  9996","l2":"2 52744  97.6726 351.2220 0006441  10.8007 349.3373 15.34707957230822"},{"id":"52746","name":"GHGSAT-C4","type":"PAYLOAD","l1":"1 52746U 22057Q   26202.62415584  .00005296  00000-0  15987-3 0  9992","l2":"2 52746  97.6565 348.3855 0005545 356.3646   3.7555 15.34717247230823"},{"id":"56186","name":"GHGSAT-C8","type":"PAYLOAD","l1":"1 56186U 23054J   26202.62267119  .00015551  00000-0  24278-3 0  9999","l2":"2 56186  97.2943 112.4514 0001953 333.3411  26.7742 15.53905024183785"},{"id":"56204","name":"GHGSAT-C6","type":"PAYLOAD","l1":"1 56204U 23054AC  26202.58899419  .00013867  00000-0  21690-3 0  9992","l2":"2 56204  97.3005 113.1255 0003148 266.7470  93.3424 15.53876268183793"},{"id":"56209","name":"GHGSAT-C7","type":"PAYLOAD","l1":"1 56209U 23054AH  26202.60131231  .00010391  00000-0  18351-3 0  9990","l2":"2 56209  97.2957 111.4189 0004822 271.6132  88.4568 15.50540627183721"},{"id":"64529","name":"GHGSAT-C12","type":"PAYLOAD","l1":"1 64529U 25135B   26202.60349970  .00002870  00000-0  13456-3 0  9991","l2":"2 64529  97.4772 317.1148 0006206  64.2678 295.9197 15.20472251 60058"},{"id":"64548","name":"GHGSAT-C13","type":"PAYLOAD","l1":"1 64548U 25135W   26202.58716893  .00005113  00000-0  23069-3 0  9995","l2":"2 64548  97.4800 317.7258 0001566  62.9802 297.1593 15.21447820 60089"}]}