{"fetched_at":"2026-07-22T07:09:42.508Z","source":"https://celestrak.org/NORAD/elements/gp.php?NAME=GHGSAT&FORMAT=JSON","constellation":"ghgsat","records":[{"OBJECT_NAME":"GHGSAT-C1","OBJECT_ID":"2020-061G","EPOCH":"2026-07-21T14:05:01.794912","CLASSIFICATION_TYPE":"U","MEAN_MOTION":15.73815927,"ECCENTRICITY":0.00014639,"INCLINATION":97.2081,"RA_OF_ASC_NODE":288.9025,"ARG_OF_PERICENTER":168.2637,"MEAN_ANOMALY":191.8663,"EPHEMERIS_TYPE":0,"NORAD_CAT_ID":46278,"ELEMENT_SET_NO":999,"REV_AT_EPOCH":32888,"BSTAR":0.00028958247,"MEAN_MOTION_DOT":0.00040784,"MEAN_MOTION_DDOT":0},{"OBJECT_NAME":"GHGSAT-C2","OBJECT_ID":"2021-006DA","EPOCH":"2026-07-21T13:37:11.435808","CLASSIFICATION_TYPE":"U","MEAN_MOTION":15.38158234,"ECCENTRICITY":0.00063578,"INCLINATION":97.2127,"RA_OF_ASC_NODE":249.2472,"ARG_OF_PERICENTER":58.2743,"MEAN_ANOMALY":301.9121,"EPHEMERIS_TYPE":0,"NORAD_CAT_ID":47509,"ELEMENT_SET_NO":999,"REV_AT_EPOCH":30513,"BSTAR":0.00014846376,"MEAN_MOTION_DOT":0.000055,"MEAN_MOTION_DDOT":0},{"OBJECT_NAME":"GHGSAT-C3","OBJECT_ID":"2022-057F","EPOCH":"2026-07-21T14:28:51.714048","CLASSIFICATION_TYPE":"U","MEAN_MOTION":15.34730391,"ECCENTRICITY":0.00057367,"INCLINATION":97.664,"RA_OF_ASC_NODE":349.5675,"ARG_OF_PERICENTER":14.2001,"MEAN_ANOMALY":345.9402,"EPHEMERIS_TYPE":0,"NORAD_CAT_ID":52737,"ELEMENT_SET_NO":999,"REV_AT_EPOCH":23081,"BSTAR":0.00016211685,"MEAN_MOTION_DOT":0.00005373,"MEAN_MOTION_DDOT":0},{"OBJECT_NAME":"GHGSAT-C5","OBJECT_ID":"2022-057N","EPOCH":"2026-07-21T15:25:39.412992","CLASSIFICATION_TYPE":"U","MEAN_MOTION":15.34707957,"ECCENTRICITY":0.00064415,"INCLINATION":97.6726,"RA_OF_ASC_NODE":351.222,"ARG_OF_PERICENTER":10.8007,"MEAN_ANOMALY":349.3373,"EPHEMERIS_TYPE":0,"NORAD_CAT_ID":52744,"ELEMENT_SET_NO":999,"REV_AT_EPOCH":23082,"BSTAR":0.00017213969,"MEAN_MOTION_DOT":0.00005708,"MEAN_MOTION_DDOT":0},{"OBJECT_NAME":"GHGSAT-C4","OBJECT_ID":"2022-057Q","EPOCH":"2026-07-21T14:58:47.064576","CLASSIFICATION_TYPE":"U","MEAN_MOTION":15.34717247,"ECCENTRICITY":0.00055447,"INCLINATION":97.6565,"RA_OF_ASC_NODE":348.3855,"ARG_OF_PERICENTER":356.3646,"MEAN_ANOMALY":3.7555,"EPHEMERIS_TYPE":0,"NORAD_CAT_ID":52746,"ELEMENT_SET_NO":999,"REV_AT_EPOCH":23082,"BSTAR":0.00015987338,"MEAN_MOTION_DOT":0.00005296,"MEAN_MOTION_DDOT":0},{"OBJECT_NAME":"GHGSAT-C8","OBJECT_ID":"2023-054J","EPOCH":"2026-07-21T14:56:38.790816","CLASSIFICATION_TYPE":"U","MEAN_MOTION":15.53905024,"ECCENTRICITY":0.00019533,"INCLINATION":97.2943,"RA_OF_ASC_NODE":112.4514,"ARG_OF_PERICENTER":333.3411,"MEAN_ANOMALY":26.7742,"EPHEMERIS_TYPE":0,"NORAD_CAT_ID":56186,"ELEMENT_SET_NO":999,"REV_AT_EPOCH":18378,"BSTAR":0.00024277604,"MEAN_MOTION_DOT":0.00015551,"MEAN_MOTION_DDOT":0},{"OBJECT_NAME":"GHGSAT-C6","OBJECT_ID":"2023-054AC","EPOCH":"2026-07-21T14:08:09.098016","CLASSIFICATION_TYPE":"U","MEAN_MOTION":15.53876268,"ECCENTRICITY":0.00031481,"INCLINATION":97.3005,"RA_OF_ASC_NODE":113.1255,"ARG_OF_PERICENTER":266.747,"MEAN_ANOMALY":93.3424,"EPHEMERIS_TYPE":0,"NORAD_CAT_ID":56204,"ELEMENT_SET_NO":999,"REV_AT_EPOCH":18379,"BSTAR":0.00021690287,"MEAN_MOTION_DOT":0.00013867,"MEAN_MOTION_DDOT":0},{"OBJECT_NAME":"GHGSAT-C7","OBJECT_ID":"2023-054AH","EPOCH":"2026-07-21T14:25:53.383584","CLASSIFICATION_TYPE":"U","MEAN_MOTION":15.50540627,"ECCENTRICITY":0.00048224,"INCLINATION":97.2957,"RA_OF_ASC_NODE":111.4189,"ARG_OF_PERICENTER":271.6132,"MEAN_ANOMALY":88.4568,"EPHEMERIS_TYPE":0,"NORAD_CAT_ID":56209,"ELEMENT_SET_NO":999,"REV_AT_EPOCH":18372,"BSTAR":0.00018351103,"MEAN_MOTION_DOT":0.00010391,"MEAN_MOTION_DDOT":0},{"OBJECT_NAME":"GHGSAT-C12","OBJECT_ID":"2025-135B","EPOCH":"2026-07-21T14:29:02.374080","CLASSIFICATION_TYPE":"U","MEAN_MOTION":15.20472251,"ECCENTRICITY":0.0006206,"INCLINATION":97.4772,"RA_OF_ASC_NODE":317.1148,"ARG_OF_PERICENTER":64.2678,"MEAN_ANOMALY":295.9197,"EPHEMERIS_TYPE":0,"NORAD_CAT_ID":64529,"ELEMENT_SET_NO":999,"REV_AT_EPOCH":6005,"BSTAR":0.00013456213,"MEAN_MOTION_DOT":0.0000287,"MEAN_MOTION_DDOT":0},{"OBJECT_NAME":"GHGSAT-C13","OBJECT_ID":"2025-135W","EPOCH":"2026-07-21T14:05:31.395552","CLASSIFICATION_TYPE":"U","MEAN_MOTION":15.2144782,"ECCENTRICITY":0.00015658,"INCLINATION":97.48,"RA_OF_ASC_NODE":317.7258,"ARG_OF_PERICENTER":62.9802,"MEAN_ANOMALY":297.1593,"EPHEMERIS_TYPE":0,"NORAD_CAT_ID":64548,"ELEMENT_SET_NO":999,"REV_AT_EPOCH":6008,"BSTAR":0.00023068717,"MEAN_MOTION_DOT":0.00005113,"MEAN_MOTION_DDOT":0}]}
